[{"OBJECT_NAME":"STARLINK-34560","OBJECT_ID":"2025-142E","EPOCH":"2026-03-09T22:00:01.999584","MEAN_MOTION":14.98327654,"ECCENTRICITY":0.00031957,"INCLINATION":70.0006,"RA_OF_ASC_NODE":314.0372,"ARG_OF_PERICENTER":276.5089,"MEAN_ANOMALY":320.4654,"EPHEMERIS_TYPE":0,"CLASSIFICATION_TYPE":"U","NORAD_CAT_ID":64700,"ELEMENT_SET_NO":999,"REV_AT_EPOCH":575,"BSTAR":-0.00073575436,"MEAN_MOTION_DOT":-8.86e-5,"MEAN_MOTION_DDOT":0},{"OBJECT_NAME":"DEMOSAT\/FALCON 1","OBJECT_ID":"2008-048A","EPOCH":"2026-03-09T20:26:53.902464","MEAN_MOTION":14.96189084,"ECCENTRICITY":0.00103169,"INCLINATION":9.3439,"RA_OF_ASC_NODE":185.2154,"ARG_OF_PERICENTER":2.5079,"MEAN_ANOMALY":357.5172,"EPHEMERIS_TYPE":0,"CLASSIFICATION_TYPE":"U","NORAD_CAT_ID":33393,"ELEMENT_SET_NO":999,"REV_AT_EPOCH":94801,"BSTAR":0.00032870725,"MEAN_MOTION_DOT":4.521e-5,"MEAN_MOTION_DDOT":0}]
